[{"OBJECT_NAME":"STARLINK-5079","OBJECT_ID":"2022-125AM","EPOCH":"2026-03-09T16:32:42.087264","MEAN_MOTION":15.08839872,"ECCENTRICITY":0.00012251,"INCLINATION":53.2169,"RA_OF_ASC_NODE":214.0405,"ARG_OF_PERICENTER":83.0042,"MEAN_ANOMALY":277.1089,"EPHEMERIS_TYPE":0,"CLASSIFICATION_TYPE":"U","NORAD_CAT_ID":53999,"ELEMENT_SET_NO":999,"REV_AT_EPOCH":18946,"BSTAR":3.0585924e-5,"MEAN_MOTION_DOT":1.99e-6,"MEAN_MOTION_DDOT":0},{"OBJECT_NAME":"OBJECT J","OBJECT_ID":"2023-091J","EPOCH":"2026-03-09T22:57:45.383328","MEAN_MOTION":15.13201377,"ECCENTRICITY":0.00147906,"INCLINATION":97.519,"RA_OF_ASC_NODE":123.4537,"ARG_OF_PERICENTER":127.2759,"MEAN_ANOMALY":232.9824,"EPHEMERIS_TYPE":0,"CLASSIFICATION_TYPE":"U","NORAD_CAT_ID":57174,"ELEMENT_SET_NO":999,"REV_AT_EPOCH":14862,"BSTAR":0.00032020689,"MEAN_MOTION_DOT":5.634e-5,"MEAN_MOTION_DDOT":0}]
